LEMUR-2-LLOYD           
1 60577U 24149DP  26068.46001441  .00012007  00000+0  80143-3 0  9995
2 60577  97.6780 149.6779 0005186 125.6096 234.5616 15.07168338 85367
STARLINK-34915          
1 65187U 25175P   26068.64393262  .00003527  00000+0  24839-3 0  9999
2 65187  97.6020 302.6143 0002365  82.3451 277.8045 15.05670950 32636
